SAR-LUPE 2              
1 31797U 07030A   26149.47921112  .00015979  00000+0  31509-3 0  9997
2 31797  98.1030 251.6420 0011263 169.7312 190.4168 15.47232547 54044
SAPPHIRE                
1 39088U 13009C   26149.47823370  .00000122  00000+0  57533-4 0  9998
2 39088  98.4255 329.3791 0010211 308.8165  51.2108 14.35234824693891
PRAETORIAN SDA_602      
1 65565U 25203A   26149.01546927  .00000094  00000+0  73163-4 0  9991
2 65565  81.3046  28.5285 0004990 242.8098 117.2550 13.84341090 36043
PRAETORIAN SDA_603      
1 65566U 25203B   26149.18069266  .00000156  00000+0  12998-3 0  9993
2 65566  81.3051  28.2782 0008603 243.0286 116.9992 13.83903820 36079
PRAETORIAN SDA_604      
1 65567U 25203C   26149.18863166  .00000148  00000+0  12457-3 0  9996
2 65567  81.3069  28.6542 0004582 251.4462 108.6196 13.83044529 36052
PRAETORIAN SDA_605      
1 65568U 25203D   26149.08694782  .00000118  00000+0  96447-4 0  9991
2 65568  81.3033  28.4299 0007276 239.2101 120.8340 13.83432209 36051
PRAETORIAN SDA_606      
1 65569U 25203E   26148.99679985  .00000120  00000+0  98796-4 0  9991
2 65569  81.3069  28.7267 0004905 239.3101 120.7572 13.83405008 36037
PRAETORIAN SDA_607      
1 65570U 25203F   26149.01698146  .00000275  00000+0  23566-3 0  9990
2 65570  81.3055  28.4007 0007872 244.5551 115.4791 13.84282150 36054
PRAETORIAN SDA_608      
1 65571U 25203G   26149.20482201  .00000130  00000+0  10666-3 0  9992
2 65571  81.3021  28.3811 0005079 249.9315 110.1295 13.83814570 36062
PRAETORIAN SDA_609      
1 65572U 25203H   26148.99901907  .00000202  00000+0  17012-3 0  9999
2 65572  81.3059  28.5604 0005646 242.8526 117.2056 13.84282147 36043
PRAETORIAN SDA_610      
1 65573U 25203J   26149.18505914  .00000105  00000+0  83852-4 0  9998
2 65573  81.3022  28.3583 0005703 246.1816 113.8743 13.83850391 36069
PRAETORIAN SDA_611      
1 65574U 25203K   26149.17839036  .00000186  00000+0  15843-3 0  9996
2 65574  81.3029  28.5148 0004642 254.6245 105.4399 13.83307457 36050
PRAETORIAN SDA_612      
1 65575U 25203L   26149.19171698  .00000231  00000+0  19347-3 0  9996
2 65575  81.3037  28.1337 0008307 242.4389 117.5924 13.85036940 36081
PRAETORIAN SDA_613      
1 65576U 25203M   26149.17766272  .00000121  00000+0  10086-3 0  9992
2 65576  81.3014  28.4972 0004777 242.2676 117.7995 13.82763479 36057
PRAETORIAN SDA_614      
1 65577U 25203N   26149.17732700  .00000115  00000+0  91432-4 0  9990
2 65577  81.3029  28.2214 0006215 240.5159 119.5378 13.84776324 36080
PRAETORIAN SDA_615      
1 65578U 25203P   26149.07724567  .00000218  00000+0  18383-3 0  9999
2 65578  81.3039  28.2660 0008124 241.4173 118.6167 13.84433910 36069
PRAETORIAN SDA_616      
1 65579U 25203Q   26149.17703277  .00000196  00000+0  16818-3 0  9992
2 65579  81.3080  28.6480 0004611 253.1479 106.9172 13.83265151 36050
PRAETORIAN SDA_617      
1 65580U 25203R   26149.19702377  .00000069  00000+0  52071-4 0  9997
2 65580  81.3052  28.4626 0006473 240.8562 119.1946 13.83148257 36068
PRAETORIAN SDA_618      
1 65581U 25203S   26149.19114488  .00000226  00000+0  19050-3 0  9992
2 65581  81.3036  28.0978 0008813 242.8627 117.1632 13.84773174 36086
PRAETORIAN SDA_619      
1 65582U 25203T   26148.99841410  .00000192  00000+0  16214-3 0  9993
2 65582  81.3060  28.5429 0007102 240.5794 119.4654 13.83942185 36673
PRAETORIAN SDA_620      
1 65583U 25203U   26149.16823692  .00000222  00000+0  19047-3 0  9997
2 65583  81.3047  28.4030 0006652 237.8056 122.2456 13.83616358 36060
PRAETORIAN SDA_621      
1 65584U 25203V   26148.99993015  .00000160  00000+0  13343-3 0  9999
2 65584  81.3036  28.4847 0006508 235.3226 124.7318 13.83798907 36040
PRAETORIAN SDA_601      
1 65585U 25203W   26149.17905148  .00000149  00000+0  12504-3 0  9996
2 65585  81.3060  28.5947 0004541 255.2799 104.7854 13.83271021 36058
